{
  "type": "FeatureCollection",
  "features": [
    {
      "type": "Feature",
      "properties": {
        "norad_id": 37691,
        "name": "FENGYUN 1C DEB",
        "group": "fengyun-1c-debris",
        "lat": 73.59753082906182,
        "lon": 94.05725303561032,
        "alt_km": 607.7873618641097,
        "timestamp": "2025-12-06T09:34:17.203068+00:00",
        "meta_object_name": "FENGYUN 1C DEB",
        "meta_object_id": "1999-025ELG",
        "meta_epoch": "2025-12-05T11:39:48.105216",
        "meta_mean_motion": 14.57370835,
        "meta_eccentricity": 0.02808842,
        "meta_inclination": 98.3726,
        "meta_ra_of_asc_node": 243.1169,
        "meta_arg_of_pericenter": 172.5567,
        "meta_mean_anomaly": 187.9938,
        "meta_ephemeris_type": 0,
        "meta_classification_type": "U",
        "meta_norad_cat_id": 37691,
        "meta_element_set_no": 999,
        "meta_rev_at_epoch": 85528,
        "meta_bstar": 0.003181063,
        "meta_mean_motion_dot": 0.00024892,
        "meta_mean_motion_ddot": 0,
        "tle_line1": "1 37691U 99025ELG 25339.48597344  .00024892  00000+0  31811-2 0  9997",
        "tle_line2": "2 37691  98.3726 243.1169 0280884 172.5567 187.9938 14.57370835855288"
      },
      "geometry": {
        "type": "Point",
        "coordinates": [
          94.05725303561032,
          73.59753082906182
        ]
      }
    },
    {
      "type": "Feature",
      "properties": {
        "norad_id": 37693,
        "name": "FENGYUN 1C DEB",
        "group": "fengyun-1c-debris",
        "lat": -33.31315385078434,
        "lon": 154.65015532407284,
        "alt_km": 897.6182384278782,
        "timestamp": "2025-12-06T09:34:17.203079+00:00",
        "meta_object_name": "FENGYUN 1C DEB",
        "meta_object_id": "1999-025ELJ",
        "meta_epoch": "2025-12-05T18:03:26.349984",
        "meta_mean_motion": 14.08461253,
        "meta_eccentricity": 0.00725441,
        "meta_inclination": 98.6975,
        "meta_ra_of_asc_node": 339.8006,
        "meta_arg_of_pericenter": 94.3443,
        "meta_mean_anomaly": 82.7608,
        "meta_ephemeris_type": 0,
        "meta_classification_type": "U",
        "meta_norad_cat_id": 37693,
        "meta_element_set_no": 999,
        "meta_rev_at_epoch": 62050,
        "meta_bstar": 0.0009719942,
        "meta_mean_motion_dot": 1.666e-05,
        "meta_mean_motion_ddot": 0,
        "tle_line1": "1 37693U 99025ELJ 25339.75238831  .00001666  00000+0  97199-3 0  9998",
        "tle_line2": "2 37693  98.6975 339.8006 0072544  94.3443  82.7608 14.08461253620500"
      },
      "geometry": {
        "type": "Point",
        "coordinates": [
          154.65015532407284,
          -33.31315385078434
        ]
      }
    },
    {
      "type": "Feature",
      "properties": {
        "norad_id": 37694,
        "name": "FENGYUN 1C DEB",
        "group": "fengyun-1c-debris",
        "lat": 61.53214995233156,
        "lon": -116.07539651817564,
        "alt_km": 723.9868076535013,
        "timestamp": "2025-12-06T09:34:17.203089+00:00",
        "meta_object_name": "FENGYUN 1C DEB",
        "meta_object_id": "1999-025ELK",
        "meta_epoch": "2025-11-23T11:03:37.255104",
        "meta_mean_motion": 14.16434986,
        "meta_eccentricity": 0.01492409,
        "meta_inclination": 98.199,
        "meta_ra_of_asc_node": 36.5782,
        "meta_arg_of_pericenter": 149.1235,
        "meta_mean_anomaly": 270.2915,
        "meta_ephemeris_type": 0,
        "meta_classification_type": "U",
        "meta_norad_cat_id": 37694,
        "meta_element_set_no": 999,
        "meta_rev_at_epoch": 51431,
        "meta_bstar": 0.0018793287,
        "meta_mean_motion_dot": 4.13e-05,
        "meta_mean_motion_ddot": 0,
        "tle_line1": "1 37694U 99025ELK 25327.46084786  .00004130  00000+0  18793-2 0  9993",
        "tle_line2": "2 37694  98.1990  36.5782 0149240 149.1235 270.2915 14.16434986514319"
      },
      "geometry": {
        "type": "Point",
        "coordinates": [
          -116.07539651817564,
          61.53214995233156
        ]
      }
    },
    {
      "type": "Feature",
      "properties": {
        "norad_id": 37695,
        "name": "FENGYUN 1C DEB",
        "group": "fengyun-1c-debris",
        "lat": 62.09709371078259,
        "lon": -139.4807174003452,
        "alt_km": 1334.6710836576422,
        "timestamp": "2025-12-06T09:34:17.203099+00:00",
        "meta_object_name": "FENGYUN 1C DEB",
        "meta_object_id": "1999-025ELL",
        "meta_epoch": "2025-11-12T09:45:41.390784",
        "meta_mean_motion": 13.64847867,
        "meta_eccentricity": 0.04648499,
        "meta_inclination": 98.2183,
        "meta_ra_of_asc_node": 4.2705,
        "meta_arg_of_pericenter": 342.0154,
        "meta_mean_anomaly": 28.6211,
        "meta_ephemeris_type": 0,
        "meta_classification_type": "U",
        "meta_norad_cat_id": 37695,
        "meta_element_set_no": 999,
        "meta_rev_at_epoch": 88838,
        "meta_bstar": 0.0022999386,
        "meta_mean_motion_dot": 3.857e-05,
        "meta_mean_motion_ddot": 0,
        "tle_line1": "1 37695U 99025ELL 25316.40672906  .00003857  00000+0  22999-2 0  9991",
        "tle_line2": "2 37695  98.2183   4.2705 0464849 342.0154  28.6211 13.64847867888384"
      },
      "geometry": {
        "type": "Point",
        "coordinates": [
          -139.4807174003452,
          62.09709371078259
        ]
      }
    },
    {
      "type": "Feature",
      "properties": {
        "norad_id": 37704,
        "name": "FENGYUN 1C DEB",
        "group": "fengyun-1c-debris",
        "lat": -37.92670786899521,
        "lon": -179.11163886604805,
        "alt_km": 1104.2994882374987,
        "timestamp": "2025-12-06T09:34:17.203109+00:00",
        "meta_object_name": "FENGYUN 1C DEB",
        "meta_object_id": "1999-025ELV",
        "meta_epoch": "2025-11-13T18:53:12.256224",
        "meta_mean_motion": 13.70394507,
        "meta_eccentricity": 0.02407203,
        "meta_inclination": 98.3154,
        "meta_ra_of_asc_node": 154.7598,
        "meta_arg_of_pericenter": 256.7939,
        "meta_mean_anomaly": 163.8462,
        "meta_ephemeris_type": 0,
        "meta_classification_type": "U",
        "meta_norad_cat_id": 37704,
        "meta_element_set_no": 999,
        "meta_rev_at_epoch": 61968,
        "meta_bstar": 0.0028357246,
        "meta_mean_motion_dot": 3.039e-05,
        "meta_mean_motion_ddot": 0,
        "tle_line1": "1 37704U 99025ELV 25317.78694741  .00003039  00000+0  28357-2 0  9991",
        "tle_line2": "2 37704  98.3154 154.7598 0240720 256.7939 163.8462 13.70394507619687"
      },
      "geometry": {
        "type": "Point",
        "coordinates": [
          -179.11163886604805,
          -37.92670786899521
        ]
      }
    },
    {
      "type": "Feature",
      "properties": {
        "norad_id": 37707,
        "name": "FENGYUN 1C DEB",
        "group": "fengyun-1c-debris",
        "lat": -74.87905735854105,
        "lon": 121.07766512474113,
        "alt_km": 795.7988142026843,
        "timestamp": "2025-12-06T09:34:17.203119+00:00",
        "meta_object_name": "FENGYUN 1C DEB",
        "meta_object_id": "1999-025ELY",
        "meta_epoch": "2025-11-27T05:20:57.252768",
        "meta_mean_motion": 14.56289671,
        "meta_eccentricity": 0.01442237,
        "meta_inclination": 100.2205,
        "meta_ra_of_asc_node": 331.7391,
        "meta_arg_of_pericenter": 70.8606,
        "meta_mean_anomaly": 348.4248,
        "meta_ephemeris_type": 0,
        "meta_classification_type": "U",
        "meta_norad_cat_id": 37707,
        "meta_element_set_no": 999,
        "meta_rev_at_epoch": 85340,
        "meta_bstar": 0.0006683793,
        "meta_mean_motion_dot": 3.335e-05,
        "meta_mean_motion_ddot": 0,
        "tle_line1": "1 37707U 99025ELY 25331.22288487  .00003335  00000+0  66838-3 0  9991",
        "tle_line2": "2 37707 100.2205 331.7391 0144223  70.8606 348.4248 14.56289671853408"
      },
      "geometry": {
        "type": "Point",
        "coordinates": [
          121.07766512474113,
          -74.87905735854105
        ]
      }
    },
    {
      "type": "Feature",
      "properties": {
        "norad_id": 37712,
        "name": "FENGYUN 1C DEB",
        "group": "fengyun-1c-debris",
        "lat": -25.226720360247946,
        "lon": -64.93056095580393,
        "alt_km": 831.3768876531358,
        "timestamp": "2025-12-06T09:34:17.203129+00:00",
        "meta_object_name": "FENGYUN 1C DEB",
        "meta_object_id": "1999-025EMD",
        "meta_epoch": "2025-12-05T15:57:08.176608",
        "meta_mean_motion": 14.36402296,
        "meta_eccentricity": 0.00795406,
        "meta_inclination": 98.818,
        "meta_ra_of_asc_node": 118.5122,
        "meta_arg_of_pericenter": 14.7165,
        "meta_mean_anomaly": 356.8547,
        "meta_ephemeris_type": 0,
        "meta_classification_type": "U",
        "meta_norad_cat_id": 37712,
        "meta_element_set_no": 999,
        "meta_rev_at_epoch": 63859,
        "meta_bstar": 0.00078297375,
        "meta_mean_motion_dot": 2.331e-05,
        "meta_mean_motion_ddot": 0,
        "tle_line1": "1 37712U 99025EMD 25339.66467797  .00002331  00000+0  78297-3 0  9993",
        "tle_line2": "2 37712  98.8180 118.5122 0079540  14.7165 356.8547 14.36402296638591"
      },
      "geometry": {
        "type": "Point",
        "coordinates": [
          -64.93056095580393,
          -25.226720360247946
        ]
      }
    }
  ]
}